{
"type": "FeatureCollection",
"name": "landslides_study_area",
"crs": { "type": "name", "properties": { "name": "urn:ogc:def:crs:OGC:1.3:CRS84" } },
"features": [
{ "type": "Feature", "properties": { "event_id": 1001, "event_title": "Joshimath Landslide", "event_date": "2021-02-07", "latitude": 30.55, "longitude": 79.56, "landslide_category": "landslide", "trigger": "downpour" }, "geometry": { "type": "Point", "coordinates": [ 79.56, 30.55 ] } },
{ "type": "Feature", "properties": { "event_id": 1002, "event_title": "Chamoli Debris Flow", "event_date": "2021-02-07", "latitude": 30.38, "longitude": 79.73, "landslide_category": "mudslide", "trigger": "rain_melt" }, "geometry": { "type": "Point", "coordinates": [ 79.73, 30.38 ] } },
{ "type": "Feature", "properties": { "event_id": 1003, "event_title": "Rainagar Slope Failure", "event_date": "2021-05-20", "latitude": 30.48, "longitude": 79.62, "landslide_category": "landslide", "trigger": "monsoon" }, "geometry": { "type": "Point", "coordinates": [ 79.62, 30.48 ] } },
{ "type": "Feature", "properties": { "event_id": 1004, "event_title": "Pipalkoti Road Block", "event_date": "2021-07-12", "latitude": 30.43, "longitude": 79.43, "landslide_category": "rock_fall", "trigger": "downpour" }, "geometry": { "type": "Point", "coordinates": [ 79.43, 30.43 ] } },
{ "type": "Feature", "properties": { "event_id": 1005, "event_title": "Helang Debris Slide", "event_date": "2021-08-28", "latitude": 30.52, "longitude": 79.51, "landslide_category": "mudslide", "trigger": "monsoon" }, "geometry": { "type": "Point", "coordinates": [ 79.51, 30.52 ] } },
{ "type": "Feature", "properties": { "event_id": 1006, "event_title": "Nandaprayag Rockfall", "event_date": "2021-09-18", "latitude": 30.33, "longitude": 79.32, "landslide_category": "rock_fall", "trigger": "downpour" }, "geometry": { "type": "Point", "coordinates": [ 79.32, 30.33 ] } },
{ "type": "Feature", "properties": { "event_id": 1007, "event_title": "Badrinath Highway Slide", "event_date": "2021-10-18", "latitude": 30.74, "longitude": 79.49, "landslide_category": "landslide", "trigger": "monsoon" }, "geometry": { "type": "Point", "coordinates": [ 79.49, 30.74 ] } }
]
}
